start=new Date('2021-10-20T00:00:00.000Z').valueOf();
sats=[{"GP_ID":"187582299","NORAD_CAT_ID":"47787","EPHEMERIS_TYPE":"0","LAUNCH_DATE":"2021-03-11","INCLINATION":"53.0560","MEAN_MOTION":"15.06407879","FILE":"3171508","TLE_LINE1":"1 47787U 21018A   21292.35664780  .00001705  00000-0  13333-3 0  9999","SEMIMAJOR_AXIS":"6925.324","RCS_SIZE":"LARGE","MEAN_MOTION_DOT":"0.00001705","PERIOD":"95.592","OBJECT_NAME":"STARLINK-2257","TIME_SYSTEM":"UTC","APOAPSIS":"548.319","MEAN_ELEMENT_THEORY":"SGP4","CLASSIFICATION_TYPE":"U","RA_OF_ASC_NODE":"244.7761","SITE":"AFETR","EPOCH":"2021-10-19T08:33:34.369920","OBJECT_TYPE":"PAYLOAD","COUNTRY_CODE":"US","OBJECT_ID":"2021-018A","MEAN_ANOMALY":"299.7030","MEAN_MOTION_DDOT":"0.0000000000000","REF_FRAME":"TEME","ELEMENT_SET_NO":"999","BSTAR":"0.00013333000000","ECCENTRICITY":"0.00016310","DECAY_DATE":null,"TLE_LINE2":"2 47787  53.0560 244.7761 0001631  60.4122 299.7030 15.06407879 34746","ARG_OF_PERICENTER":"60.4122","REV_AT_EPOCH":"3474","CENTER_NAME":"EARTH","PERIAPSIS":"546.060"},{"LAUNCH_DATE":"2021-03-11","EPHEMERIS_TYPE":"0","GP_ID":"187631207","NORAD_CAT_ID":"47788","TLE_LINE1":"1 47788U 21018B   21292.74676817 -.00230282  00000-0 -15636-1 0  9999","FILE":"3172644","MEAN_MOTION":"15.07128185","INCLINATION":"53.0541","TIME_SYSTEM":"UTC","OBJECT_NAME":"STARLINK-2314","PERIOD":"95.546","MEAN_MOTION_DOT":"-0.00230282","RCS_SIZE":"LARGE","SEMIMAJOR_AXIS":"6923.118","SITE":"AFETR","RA_OF_ASC_NODE":"216.9664","CLASSIFICATION_TYPE":"U","MEAN_ELEMENT_THEORY":"SGP4","APOAPSIS":"545.978","OBJECT_ID":"2021-018B","COUNTRY_CODE":"US","OBJECT_TYPE":"PAYLOAD","EPOCH":"2021-10-19T17:55:20.769888","REF_FRAME":"TEME","MEAN_ANOMALY":"294.5158","MEAN_MOTION_DDOT":"0.0000000000000","ARG_OF_PERICENTER":"65.5981","TLE_LINE2":"2 47788  53.0541 216.9664 0001438  65.5981 294.5158 15.07128185 35525","DECAY_DATE":null,"BSTAR":"-0.01563600000000","ECCENTRICITY":"0.00014380","ELEMENT_SET_NO":"999","PERIAPSIS":"543.987","CENTER_NAME":"EARTH","REV_AT_EPOCH":"3552"},{"SEMIMAJOR_AXIS":"6925.316","MEAN_MOTION_DOT":"0.00004830","RCS_SIZE":"MEDIUM","PERIOD":"95.591","OBJECT_NAME":"STARLINK-2315","TIME_SYSTEM":"UTC","APOAPSIS":"548.411","MEAN_ELEMENT_THEORY":"SGP4","CLASSIFICATION_TYPE":"U","RA_OF_ASC_NODE":"223.8928","SITE":"AFETR","NORAD_CAT_ID":"47789","GP_ID":"187630460","EPHEMERIS_TYPE":"0","LAUNCH_DATE":"2021-03-11","INCLINATION":"53.0565","FILE":"3172644","MEAN_MOTION":"15.06410716","TLE_LINE1":"1 47789U 21018C   21292.55014875  .00004830  00000-0  34281-3 0  9994","ELEMENT_SET_NO":"999","BSTAR":"0.00034281000000","ECCENTRICITY":"0.00017760","DECAY_DATE":null,"TLE_LINE2":"2 47789  53.0565 223.8928 0001776  73.5794 286.5391 15.06410716 35408","ARG_OF_PERICENTER":"73.5794","REV_AT_EPOCH":"3540","CENTER_NAME":"EARTH","PERIAPSIS":"545.951","EPOCH":"2021-10-19T13:12:12.852000","OBJECT_TYPE":"PAYLOAD","COUNTRY_CODE":"US","OBJECT_ID":"2021-018C","MEAN_ANOMALY":"286.5391","MEAN_MOTION_DDOT":"0.0000000000000","REF_FRAME":"TEME"},{"OBJECT_ID":"2021-018D","COUNTRY_CODE":"US","OBJECT_TYPE":"PAYLOAD","EPOCH":"2021-10-19T22:30:26.249184","REF_FRAME":"TEME","MEAN_ANOMALY":"297.9245","MEAN_MOTION_DDOT":"0.0000000000000","ARG_OF_PERICENTER":"62.1932","DECAY_DATE":null,"TLE_LINE2":"2 47790  53.0544 212.3668 0001807  62.1932 297.9245 15.17837718 35607","ELEMENT_SET_NO":"999","ECCENTRICITY":"0.00018070","BSTAR":"-0.02223700000000","PERIAPSIS":"511.134","CENTER_NAME":"EARTH","REV_AT_EPOCH":"3560","EPHEMERIS_TYPE":"0","LAUNCH_DATE":"2021-03-11","GP_ID":"187630210","NORAD_CAT_ID":"47790","TLE_LINE1":"1 47790U 21018D   21292.93780381 -.00429917  00000-0 -22237-1 0  9995","INCLINATION":"53.0544","MEAN_MOTION":"15.17837718","FILE":"3172644","TIME_SYSTEM":"UTC","OBJECT_NAME":"STARLINK-2319","PERIOD":"94.872","SEMIMAJOR_AXIS":"6890.514","MEAN_MOTION_DOT":"-0.00429917","RCS_SIZE":"LARGE","CLASSIFICATION_TYPE":"U","RA_OF_ASC_NODE":"212.3668","SITE":"AFETR","MEAN_ELEMENT_THEORY":"SGP4","APOAPSIS":"513.624"},{"EPHEMERIS_TYPE":"0","LAUNCH_DATE":"2021-03-11","NORAD_CAT_ID":"47791","GP_ID":"187582443","TLE_LINE1":"1 47791U 21018E   21292.34558412  .00000383  00000-0  44621-4 0  9993","INCLINATION":"53.0569","MEAN_MOTION":"15.06414634","FILE":"3171517","TIME_SYSTEM":"UTC","OBJECT_NAME":"STARLINK-2322","PERIOD":"95.591","SEMIMAJOR_AXIS":"6925.304","RCS_SIZE":"LARGE","MEAN_MOTION_DOT":"0.00000383","RA_OF_ASC_NODE":"244.8156","CLASSIFICATION_TYPE":"U","SITE":"AFETR","MEAN_ELEMENT_THEORY":"SGP4","APOAPSIS":"548.125","OBJECT_ID":"2021-018E","COUNTRY_CODE":"US","OBJECT_TYPE":"PAYLOAD","EPOCH":"2021-10-19T08:17:38.467968","REF_FRAME":"TEME","MEAN_ANOMALY":"282.3153","MEAN_MOTION_DDOT":"0.0000000000000","ARG_OF_PERICENTER":"77.7991","DECAY_DATE":null,"TLE_LINE2":"2 47791  53.0569 244.8156 0001381  77.7991 282.3153 15.06414634 34747","ELEMENT_SET_NO":"999","ECCENTRICITY":"0.00013810","BSTAR":"0.00004462100000","PERIAPSIS":"546.212","CENTER_NAME":"EARTH","REV_AT_EPOCH":"3474"},{"TIME_SYSTEM":"UTC","OBJECT_NAME":"STARLINK-2334","PERIOD":"95.592","SEMIMAJOR_AXIS":"6925.318","RCS_SIZE":"LARGE","MEAN_MOTION_DOT":"0.00001809","RA_OF_ASC_NODE":"225.0576","CLASSIFICATION_TYPE":"U","SITE":"AFETR","MEAN_ELEMENT_THEORY":"SGP4","APOAPSIS":"548.372","EPHEMERIS_TYPE":"0","LAUNCH_DATE":"2021-03-11","GP_ID":"187582440","NORAD_CAT_ID":"47792","TLE_LINE1":"1 47792U 21018F   21292.29212737  .00001809  00000-0  14025-3 0  9993","INCLINATION":"53.0554","MEAN_MOTION":"15.06409851","FILE":"3171517","ARG_OF_PERICENTER":"71.6547","DECAY_DATE":null,"TLE_LINE2":"2 47792  53.0554 225.0576 0001716  71.6547 288.4628 15.06409851 35011","ELEMENT_SET_NO":"999","ECCENTRICITY":"0.00017160","BSTAR":"0.00014025000000","PERIAPSIS":"545.995","CENTER_NAME":"EARTH","REV_AT_EPOCH":"3501","OBJECT_ID":"2021-018F","COUNTRY_CODE":"US","OBJECT_TYPE":"PAYLOAD","EPOCH":"2021-10-19T07:00:39.804768","REF_FRAME":"TEME","MEAN_ANOMALY":"288.4628","MEAN_MOTION_DDOT":"0.0000000000000"},{"APOAPSIS":"548.438","SITE":"AFETR","RA_OF_ASC_NODE":"224.0900","CLASSIFICATION_TYPE":"U","MEAN_ELEMENT_THEORY":"SGP4","PERIOD":"95.592","RCS_SIZE":"LARGE","MEAN_MOTION_DOT":"0.00000665","SEMIMAJOR_AXIS":"6925.348","TIME_SYSTEM":"UTC","OBJECT_NAME":"STARLINK-2338","FILE":"3171540","MEAN_MOTION":"15.06400214","INCLINATION":"53.0554","TLE_LINE1":"1 47793U 21018G   21292.50591253  .00000665  00000-0  63573-4 0  9993","GP_ID":"187584044","NORAD_CAT_ID":"47793","LAUNCH_DATE":"2021-03-11","EPHEMERIS_TYPE":"0","CENTER_NAME":"EARTH","REV_AT_EPOCH":"3504","PERIAPSIS":"545.988","TLE_LINE2":"2 47793  53.0554 224.0900 0001769  74.4800 285.6384 15.06400214 35048","DECAY_DATE":null,"BSTAR":"0.00006357300000","ECCENTRICITY":"0.00017690","ELEMENT_SET_NO":"999","ARG_OF_PERICENTER":"74.4800","MEAN_ANOMALY":"285.6384","MEAN_MOTION_DDOT":"0.0000000000000","REF_FRAME":"TEME","OBJECT_TYPE":"PAYLOAD","EPOCH":"2021-10-19T12:08:30.842592","OBJECT_ID":"2021-018G","COUNTRY_CODE":"US"},{"ARG_OF_PERICENTER":"65.9883","ECCENTRICITY":"0.00018250","BSTAR":"0.00018645000000","ELEMENT_SET_NO":"999","TLE_LINE2":"2 47794  53.0570 224.0852 0001825  65.9883 294.1297 15.06412770 35398","DECAY_DATE":null,"PERIAPSIS":"545.911","REV_AT_EPOCH":"3539","CENTER_NAME":"EARTH","COUNTRY_CODE":"US","OBJECT_ID":"2021-018H","EPOCH":"2021-10-19T12:13:50.402496","OBJECT_TYPE":"PAYLOAD","REF_FRAME":"TEME","MEAN_ANOMALY":"294.1297","MEAN_MOTION_DDOT":"0.0000000000000","OBJECT_NAME":"STARLINK-2341","TIME_SYSTEM":"UTC","MEAN_MOTION_DOT":"0.00002498","RCS_SIZE":"LARGE","SEMIMAJOR_AXIS":"6925.309","PERIOD":"95.591","MEAN_ELEMENT_THEORY":"SGP4","SITE":"AFETR","CLASSIFICATION_TYPE":"U","RA_OF_ASC_NODE":"224.0852","APOAPSIS":"548.438","LAUNCH_DATE":"2021-03-11","EPHEMERIS_TYPE":"0","GP_ID":"187570665","NORAD_CAT_ID":"47794","TLE_LINE1":"1 47794U 21018H   21292.50961114  .00002498  00000-0  18645-3 0  9996","MEAN_MOTION":"15.06412770","FILE":"3171120","INCLINATION":"53.0570"},{"TLE_LINE1":"1 47795U 21018J   21292.29950304  .00000091  00000-0  24998-4 0  9998","INCLINATION":"53.0559","FILE":"3171531","MEAN_MOTION":"15.06410435","EPHEMERIS_TYPE":"0","LAUNCH_DATE":"2021-03-11","NORAD_CAT_ID":"47795","GP_ID":"187584167","MEAN_ELEMENT_THEORY":"SGP4","CLASSIFICATION_TYPE":"U","RA_OF_ASC_NODE":"225.0193","SITE":"AFETR","APOAPSIS":"548.285","OBJECT_NAME":"STARLINK-2347","TIME_SYSTEM":"UTC","SEMIMAJOR_AXIS":"6925.317","MEAN_MOTION_DOT":"0.00000091","RCS_SIZE":"LARGE","PERIOD":"95.591","REF_FRAME":"TEME","MEAN_ANOMALY":"292.2312","MEAN_MOTION_DDOT":"0.0000000000000","COUNTRY_CODE":"US","OBJECT_ID":"2021-018J","EPOCH":"2021-10-19T07:11:17.062656","OBJECT_TYPE":"PAYLOAD","PERIAPSIS":"546.078","REV_AT_EPOCH":"3501","CENTER_NAME":"EARTH","ARG_OF_PERICENTER":"67.8846","ELEMENT_SET_NO":"999","BSTAR":"0.00002499800000","ECCENTRICITY":"0.00015930","DECAY_DATE":null,"TLE_LINE2":"2 47795  53.0559 225.0193 0001593  67.8846 292.2312 15.06410435 35019"},{"ARG_OF_PERICENTER":"65.3020","DECAY_DATE":null,"TLE_LINE2":"2 47796  53.0565 224.0661 0001823  65.3020 294.8158 15.06389021 35044","ELEMENT_SET_NO":"999","ECCENTRICITY":"0.00018230","BSTAR":"0.00004880900000","PERIAPSIS":"545.985","CENTER_NAME":"EARTH","REV_AT_EPOCH":"3504","OBJECT_ID":"2021-018K","COUNTRY_CODE":"US","OBJECT_TYPE":"PAYLOAD","EPOCH":"2021-10-19T12:19:08.631840","REF_FRAME":"TEME","MEAN_MOTION_DDOT":"0.0000000000000","MEAN_ANOMALY":"294.8158","TIME_SYSTEM":"UTC","OBJECT_NAME":"STARLINK-2373","PERIOD":"95.593","SEMIMAJOR_AXIS":"6925.382","MEAN_MOTION_DOT":"0.00000445","RCS_SIZE":"LARGE","RA_OF_ASC_NODE":"224.0661","CLASSIFICATION_TYPE":"U","SITE":"AFETR","MEAN_ELEMENT_THEORY":"SGP4","APOAPSIS":"548.510","EPHEMERIS_TYPE":"0","LAUNCH_DATE":"2021-03-11","NORAD_CAT_ID":"47796","GP_ID":"187576919","TLE_LINE1":"1 47796U 21018K   21292.51329435  .00000445  00000-0  48809-4 0  9999","INCLINATION":"53.0565","MEAN_MOTION":"15.06389021","FILE":"3171277"}];
